[{"OBJECT_NAME":"STARLINK-35615","OBJECT_ID":"2025-245Z","EPOCH":"2026-03-09T21:45:45.394560","MEAN_MOTION":15.3020912,"ECCENTRICITY":7.849e-5,"INCLINATION":53.1574,"RA_OF_ASC_NODE":282.6068,"ARG_OF_PERICENTER":87.6641,"MEAN_ANOMALY":272.4449,"EPHEMERIS_TYPE":0,"CLASSIFICATION_TYPE":"U","NORAD_CAT_ID":66257,"ELEMENT_SET_NO":999,"REV_AT_EPOCH":2129,"BSTAR":0.00082069669,"MEAN_MOTION_DOT":0.00024033,"MEAN_MOTION_DDOT":0},{"OBJECT_NAME":"OBJECT A","OBJECT_ID":"2025-234A","EPOCH":"2026-03-09T23:03:34.210368","MEAN_MOTION":15.32505956,"ECCENTRICITY":0.00130678,"INCLINATION":97.4388,"RA_OF_ASC_NODE":139.352,"ARG_OF_PERICENTER":148.634,"MEAN_ANOMALY":211.5684,"EPHEMERIS_TYPE":0,"CLASSIFICATION_TYPE":"U","NORAD_CAT_ID":66053,"ELEMENT_SET_NO":999,"REV_AT_EPOCH":2164,"BSTAR":0.0014840662,"MEAN_MOTION_DOT":0.00046856,"MEAN_MOTION_DDOT":0}]
